CCSDS_OMM_VERS = 2.0
CREATION_DATE  = 
ORIGINATOR     = 

OBJECT_NAME    = STARLINK-36570
OBJECT_ID      = 2026-020Z
CENTER_NAME    = EARTH
REF_FRAME      = TEME
TIME_SYSTEM    = UTC
MEAN_ELEMENT_THEORY = SGP/SGP4

EPOCH          = 2026-02-17T01:34:29.542080
MEAN_MOTION    = 15.76438220
ECCENTRICITY   = .00017879
INCLINATION    = 42.9972
RA_OF_ASC_NODE = 267.2858
ARG_OF_PERICENTER = 283.0303
MEAN_ANOMALY   = 77.0367

EPHEMERIS_TYPE = 0
CLASSIFICATION_TYPE = U
NORAD_CAT_ID   = 67640
ELEMENT_SET_NO = 999
REV_AT_EPOCH   = 283
BSTAR          = .13092498E-2
MEAN_MOTION_DOT = .219006E-2
MEAN_MOTION_DDOT = 0

CCSDS_OMM_VERS = 2.0
CREATION_DATE  = 
ORIGINATOR     = 

OBJECT_NAME    = STARLINK-36514
OBJECT_ID      = 2026-020AA
CENTER_NAME    = EARTH
REF_FRAME      = TEME
TIME_SYSTEM    = UTC
MEAN_ELEMENT_THEORY = SGP/SGP4

EPOCH          = 2026-02-16T23:35:53.162016
MEAN_MOTION    = 15.82095372
ECCENTRICITY   = .0001841
INCLINATION    = 42.9960
RA_OF_ASC_NODE = 267.5163
ARG_OF_PERICENTER = 261.8111
MEAN_ANOMALY   = 98.2552

EPHEMERIS_TYPE = 0
CLASSIFICATION_TYPE = U
NORAD_CAT_ID   = 67641
ELEMENT_SET_NO = 999
REV_AT_EPOCH   = 282
BSTAR          = .49143275E-3
MEAN_MOTION_DOT = .104594E-2
MEAN_MOTION_DDOT = 0

CCSDS_OMM_VERS = 2.0
CREATION_DATE  = 
ORIGINATOR     = 

OBJECT_NAME    = STARLINK-36556
OBJECT_ID      = 2026-020AB
CENTER_NAME    = EARTH
REF_FRAME      = TEME
TIME_SYSTEM    = UTC
MEAN_ELEMENT_THEORY = SGP/SGP4

EPOCH          = 2026-02-17T06:00:02.000160
MEAN_MOTION    = 15.76387392
ECCENTRICITY   = .00019175
INCLINATION    = 42.9982
RA_OF_ASC_NODE = 266.0087
ARG_OF_PERICENTER = 274.4372
MEAN_ANOMALY   = 115.5540

EPHEMERIS_TYPE = 0
CLASSIFICATION_TYPE = U
NORAD_CAT_ID   = 67642
ELEMENT_SET_NO = 999
REV_AT_EPOCH   = 410
BSTAR          = -.1529765E-3
MEAN_MOTION_DOT = -.25348E-3
MEAN_MOTION_DDOT = 0

CCSDS_OMM_VERS = 2.0
CREATION_DATE  = 
ORIGINATOR     = 

OBJECT_NAME    = STARLINK-36533
OBJECT_ID      = 2026-020AC
CENTER_NAME    = EARTH
REF_FRAME      = TEME
TIME_SYSTEM    = UTC
MEAN_ELEMENT_THEORY = SGP/SGP4

EPOCH          = 2026-02-17T00:06:23.806944
MEAN_MOTION    = 15.76444774
ECCENTRICITY   = .00025874
INCLINATION    = 42.9967
RA_OF_ASC_NODE = 267.6878
ARG_OF_PERICENTER = 274.6350
MEAN_ANOMALY   = 85.4224

EPHEMERIS_TYPE = 0
CLASSIFICATION_TYPE = U
NORAD_CAT_ID   = 67643
ELEMENT_SET_NO = 999
REV_AT_EPOCH   = 282
BSTAR          = .34806858E-3
MEAN_MOTION_DOT = .56776E-3
MEAN_MOTION_DDOT = 0

CCSDS_OMM_VERS = 2.0
CREATION_DATE  = 
ORIGINATOR     = 

OBJECT_NAME    = STARLINK-36623
OBJECT_ID      = 2026-020AD
CENTER_NAME    = EARTH
REF_FRAME      = TEME
TIME_SYSTEM    = UTC
MEAN_ELEMENT_THEORY = SGP/SGP4

EPOCH          = 2026-02-17T01:28:11.120448
MEAN_MOTION    = 15.76401973
ECCENTRICITY   = .000176
INCLINATION    = 42.9975
RA_OF_ASC_NODE = 267.2475
ARG_OF_PERICENTER = 255.3277
MEAN_ANOMALY   = 104.7398

EPHEMERIS_TYPE = 0
CLASSIFICATION_TYPE = U
NORAD_CAT_ID   = 67644
ELEMENT_SET_NO = 999
REV_AT_EPOCH   = 283
BSTAR          = .91448094E-3
MEAN_MOTION_DOT = .151354E-2
MEAN_MOTION_DDOT = 0

CCSDS_OMM_VERS = 2.0
CREATION_DATE  = 
ORIGINATOR     = 

OBJECT_NAME    = STARLINK-36619
OBJECT_ID      = 2026-020AE
CENTER_NAME    = EARTH
REF_FRAME      = TEME
TIME_SYSTEM    = UTC
MEAN_ELEMENT_THEORY = SGP/SGP4

EPOCH          = 2026-02-17T01:25:01.940736
MEAN_MOTION    = 15.76418228
ECCENTRICITY   = .00022967
INCLINATION    = 42.9975
RA_OF_ASC_NODE = 267.2300
ARG_OF_PERICENTER = 269.4331
MEAN_ANOMALY   = 90.6275

EPHEMERIS_TYPE = 0
CLASSIFICATION_TYPE = U
NORAD_CAT_ID   = 67645
ELEMENT_SET_NO = 999
REV_AT_EPOCH   = 283
BSTAR          = .11147221E-2
MEAN_MOTION_DOT = .185493E-2
MEAN_MOTION_DDOT = 0

CCSDS_OMM_VERS = 2.0
CREATION_DATE  = 
ORIGINATOR     = 

OBJECT_NAME    = ALSAT-3B
OBJECT_ID      = 2026-021A
CENTER_NAME    = EARTH
REF_FRAME      = TEME
TIME_SYSTEM    = UTC
MEAN_ELEMENT_THEORY = SGP/SGP4

EPOCH          = 2026-02-17T06:55:06.097728
MEAN_MOTION    = 15.23632436
ECCENTRICITY   = .0012221
INCLINATION    = 97.4711
RA_OF_ASC_NODE = 122.7132
ARG_OF_PERICENTER = 201.0885
MEAN_ANOMALY   = 158.9849

EPHEMERIS_TYPE = 0
CLASSIFICATION_TYPE = U
NORAD_CAT_ID   = 67646
ELEMENT_SET_NO = 999
REV_AT_EPOCH   = 261
BSTAR          = .33226042E-3
MEAN_MOTION_DOT = .7906E-4
MEAN_MOTION_DDOT = 0

CCSDS_OMM_VERS = 2.0
CREATION_DATE  = 
ORIGINATOR     = 

OBJECT_NAME    = CZ-2C R/B
OBJECT_ID      = 2026-021B
CENTER_NAME    = EARTH
REF_FRAME      = TEME
TIME_SYSTEM    = UTC
MEAN_ELEMENT_THEORY = SGP/SGP4

EPOCH          = 2026-02-17T06:59:37.523328
MEAN_MOTION    = 15.23528640
ECCENTRICITY   = .01534197
INCLINATION    = 97.6552
RA_OF_ASC_NODE = 123.3500
ARG_OF_PERICENTER = 82.1458
MEAN_ANOMALY   = 279.7163

EPHEMERIS_TYPE = 0
CLASSIFICATION_TYPE = U
NORAD_CAT_ID   = 67647
ELEMENT_SET_NO = 999
REV_AT_EPOCH   = 259
BSTAR          = .44874941E-3
MEAN_MOTION_DOT = .14889E-3
MEAN_MOTION_DDOT = 0

CCSDS_OMM_VERS = 2.0
CREATION_DATE  = 
ORIGINATOR     = 

OBJECT_NAME    = STARLINK-36719
OBJECT_ID      = 2026-022A
CENTER_NAME    = EARTH
REF_FRAME      = TEME
TIME_SYSTEM    = UTC
MEAN_ELEMENT_THEORY = SGP/SGP4

EPOCH          = 2026-02-17T06:00:02.000160
MEAN_MOTION    = 15.75188813
ECCENTRICITY   = .0001442
INCLINATION    = 97.2839
RA_OF_ASC_NODE = 81.2074
ARG_OF_PERICENTER = 87.9440
MEAN_ANOMALY   = 157.1674

EPHEMERIS_TYPE = 0
CLASSIFICATION_TYPE = U
NORAD_CAT_ID   = 67648
ELEMENT_SET_NO = 999
REV_AT_EPOCH   = 360
BSTAR          = -.7023669E-4
MEAN_MOTION_DOT = -.10592E-3
MEAN_MOTION_DDOT = 0

CCSDS_OMM_VERS = 2.0
CREATION_DATE  = 
ORIGINATOR     = 

OBJECT_NAME    = STARLINK-36342
OBJECT_ID      = 2026-022B
CENTER_NAME    = EARTH
REF_FRAME      = TEME
TIME_SYSTEM    = UTC
MEAN_ELEMENT_THEORY = SGP/SGP4

EPOCH          = 2026-02-17T06:00:02.000160
MEAN_MOTION    = 15.75180066
ECCENTRICITY   = .00012191
INCLINATION    = 97.2838
RA_OF_ASC_NODE = 81.2083
ARG_OF_PERICENTER = 99.5981
MEAN_ANOMALY   = 149.5218

EPHEMERIS_TYPE = 0
CLASSIFICATION_TYPE = U
NORAD_CAT_ID   = 67649
ELEMENT_SET_NO = 999
REV_AT_EPOCH   = 360
BSTAR          = .8994228E-5
MEAN_MOTION_DOT = .1212E-4
MEAN_MOTION_DDOT = 0

CCSDS_OMM_VERS = 2.0
CREATION_DATE  = 
ORIGINATOR     = 

OBJECT_NAME    = STARLINK-36703
OBJECT_ID      = 2026-022C
CENTER_NAME    = EARTH
REF_FRAME      = TEME
TIME_SYSTEM    = UTC
MEAN_ELEMENT_THEORY = SGP/SGP4

EPOCH          = 2026-02-17T06:00:02.000160
MEAN_MOTION    = 15.75186291
ECCENTRICITY   = .00013167
INCLINATION    = 97.2840
RA_OF_ASC_NODE = 81.2111
ARG_OF_PERICENTER = 110.5781
MEAN_ANOMALY   = 144.5282

EPHEMERIS_TYPE = 0
CLASSIFICATION_TYPE = U
NORAD_CAT_ID   = 67650
ELEMENT_SET_NO = 999
REV_AT_EPOCH   = 360
BSTAR          = .15469604E-4
MEAN_MOTION_DOT = .2178E-4
MEAN_MOTION_DDOT = 0

CCSDS_OMM_VERS = 2.0
CREATION_DATE  = 
ORIGINATOR     = 

OBJECT_NAME    = STARLINK-36696
OBJECT_ID      = 2026-022D
CENTER_NAME    = EARTH
REF_FRAME      = TEME
TIME_SYSTEM    = UTC
MEAN_ELEMENT_THEORY = SGP/SGP4

EPOCH          = 2026-02-17T06:00:02.000160
MEAN_MOTION    = 15.75202427
ECCENTRICITY   = .00014401
INCLINATION    = 97.2839
RA_OF_ASC_NODE = 81.2152
ARG_OF_PERICENTER = 70.4817
MEAN_ANOMALY   = 194.6247

EPHEMERIS_TYPE = 0
CLASSIFICATION_TYPE = U
NORAD_CAT_ID   = 67651
ELEMENT_SET_NO = 999
REV_AT_EPOCH   = 360
BSTAR          = -.23703023E-3
MEAN_MOTION_DOT = -.35357E-3
MEAN_MOTION_DDOT = 0

