STARLINK-36570          
1 67640U 26020Z   26048.06561970  .00219006  00000+0  13092-2 0  9991
2 67640  42.9972 267.2858 0001787 283.0303  77.0367 15.76438220  2839
STARLINK-36514          
1 67641U 26020AA  26047.98325419  .00104594  00000+0  49143-3 0  9990
2 67641  42.9960 267.5163 0001841 261.8111  98.2552 15.82095372  2825
STARLINK-36556          
1 67642U 26020AB  26048.25002315 -.00025348  00000+0 -15298-3 0  9994
2 67642  42.9982 266.0087 0001917 274.4372 115.5540 15.76387392  4104
STARLINK-36533          
1 67643U 26020AC  26048.00444221  .00056776  00000+0  34807-3 0  9998
2 67643  42.9967 267.6878 0002587 274.6350  85.4224 15.76444774  2824
STARLINK-36623          
1 67644U 26020AD  26048.06123982  .00151354  00000+0  91448-3 0  9995
2 67644  42.9975 267.2475 0001760 255.3277 104.7398 15.76401973  2831
STARLINK-36619          
1 67645U 26020AE  26048.05905024  .00185493  00000+0  11147-2 0  9998
2 67645  42.9975 267.2300 0002296 269.4331  90.6275 15.76418228  2839
ALSAT-3B                
1 67646U 26021A   26048.28826502  .00007906  00000+0  33226-3 0  9993
2 67646  97.4711 122.7132 0012221 201.0885 158.9849 15.23632436  2618
CZ-2C R/B               
1 67647U 26021B   26048.29140652  .00014889  00000+0  44875-3 0  9990
2 67647  97.6552 123.3500 0153419  82.1458 279.7163 15.23528640  2598
STARLINK-36719          
1 67648U 26022A   26048.25002315 -.00010592  00000+0 -70237-4 0  9992
2 67648  97.2839  81.2074 0001442  87.9440 157.1674 15.75188813  3603
STARLINK-36342          
1 67649U 26022B   26048.25002315  .00001212  00000+0  89942-5 0  9994
2 67649  97.2838  81.2083 0001219  99.5981 149.5218 15.75180066  3605
STARLINK-36703          
1 67650U 26022C   26048.25002315  .00002178  00000+0  15470-4 0  9992
2 67650  97.2840  81.2111 0001316 110.5781 144.5282 15.75186291  3604
STARLINK-36696          
1 67651U 26022D   26048.25002315 -.00035357  00000+0 -23703-3 0  9997
2 67651  97.2839  81.2152 0001440  70.4817 194.6247 15.75202427  3607
